{"type": "FeatureCollection", "features": [ {"type": "Feature", "properties": {"norad_id": 31459, "name": "FENGYUN 1C DEB", "group": "fengyun-1c-debris", "lat": 1.3944816069415957, "lon": -101.62522067314308, "alt_km": 779.4800683642279, "timestamp": "2025-12-16T10:53:45.752456+00:00", "meta": {"OBJECT_NAME": "FENGYUN 1C DEB", "OBJECT_ID": "1999-025BUX", "EPOCH": "2025-12-12T23:44:38.705568", "MEAN_MOTION": 14.44083824, "ECCENTRICITY": 0.00940456, "INCLINATION": 98.1765, "RA_OF_ASC_NODE": 255.2445, "ARG_OF_PERICENTER": 130.906, "MEAN_ANOMALY": 230.0325, "EPHEMERIS_TYPE": 0, "CLASSIFICATION_TYPE": "U", "NORAD_CAT_ID": 31459, "ELEMENT_SET_NO": 999, "REV_AT_EPOCH": 64561, "BSTAR": 0.0020176648, "MEAN_MOTION_DOT": 7.253e-05, "MEAN_MOTION_DDOT": 0}, "tle": {"line1": "1 31459U 99025BUX 25346.98933687  .00007253  00000+0  20177-2 0  9995", "line2": "2 31459  98.1765 255.2445 0094045 130.9060 230.0325 14.44083824645613"}}, "geometry": {"type": "Point", "coordinates": [-101.62522067314308, 1.3944816069415957]}}, {"type": "Feature", "properties": {"norad_id": 31462, "name": "FENGYUN 1C DEB", "group": "fengyun-1c-debris", "lat": 51.32937039563574, "lon": -160.2363633181188, "alt_km": 834.7232489072321, "timestamp": "2025-12-16T10:53:45.752466+00:00", "meta": {"OBJECT_NAME": "FENGYUN 1C DEB", "OBJECT_ID": "1999-025BVA", "EPOCH": "2025-12-15T12:55:39.176832", "MEAN_MOTION": 14.1301412, "ECCENTRICITY": 0.00322136, "INCLINATION": 98.6899, "RA_OF_ASC_NODE": 7.8583, "ARG_OF_PERICENTER": 196.3019, "MEAN_ANOMALY": 318.1365, "EPHEMERIS_TYPE": 0, "CLASSIFICATION_TYPE": "U", "NORAD_CAT_ID": 31462, "ELEMENT_SET_NO": 999, "REV_AT_EPOCH": 95895, "BSTAR": 0.00033616995, "MEAN_MOTION_DOT": 5.87e-06, "MEAN_MOTION_DDOT": 0}, "tle": {"line1": "1 31462U 99025BVA 25349.53864788  .00000587  00000+0  33617-3 0  9995", "line2": "2 31462  98.6899   7.8583 0032213 196.3019 318.1365 14.13014120958958"}}, "geometry": {"type": "Point", "coordinates": [-160.2363633181188, 51.32937039563574]}}, {"type": "Feature", "properties": {"norad_id": 31463, "name": "FENGYUN 1C DEB", "group": "fengyun-1c-debris", "lat": 53.14380278519371, "lon": -39.97108457708482, "alt_km": 624.8065977466576, "timestamp": "2025-12-16T10:53:45.752476+00:00", "meta": {"OBJECT_NAME": "FENGYUN 1C DEB", "OBJECT_ID": "1999-025BVB", "EPOCH": "2025-12-15T04:34:31.148256", "MEAN_MOTION": 14.36957006, "ECCENTRICITY": 0.0213615, "INCLINATION": 99.0803, "RA_OF_ASC_NODE": 331.0138, "ARG_OF_PERICENTER": 32.6746, "MEAN_ANOMALY": 328.7448, "EPHEMERIS_TYPE": 0, "CLASSIFICATION_TYPE": "U", "NORAD_CAT_ID": 31463, "ELEMENT_SET_NO": 999, "REV_AT_EPOCH": 64755, "BSTAR": 0.00045972258, "MEAN_MOTION_DOT": 1.713e-05, "MEAN_MOTION_DDOT": 0}, "tle": {"line1": "1 31463U 99025BVB 25349.19063829  .00001713  00000+0  45972-3 0  9994", "line2": "2 31463  99.0803 331.0138 0213615  32.6746 328.7448 14.36957006647557"}}, "geometry": {"type": "Point", "coordinates": [-39.97108457708482, 53.14380278519371]}}, {"type": "Feature", "properties": {"norad_id": 31464, "name": "FENGYUN 1C DEB", "group": "fengyun-1c-debris", "lat": 63.02037936970294, "lon": 19.46529163335436, "alt_km": 875.204592198771, "timestamp": "2025-12-16T10:53:45.752486+00:00", "meta": {"OBJECT_NAME": "FENGYUN 1C DEB", "OBJECT_ID": "1999-025BVC", "EPOCH": "2025-12-14T22:01:44.317056", "MEAN_MOTION": 14.12478733, "ECCENTRICITY": 0.00432599, "INCLINATION": 98.7947, "RA_OF_ASC_NODE": 35.6619, "ARG_OF_PERICENTER": 235.9629, "MEAN_ANOMALY": 301.8496, "EPHEMERIS_TYPE": 0, "CLASSIFICATION_TYPE": "U", "NORAD_CAT_ID": 31464, "ELEMENT_SET_NO": 999, "REV_AT_EPOCH": 94710, "BSTAR": 0.00031259253, "MEAN_MOTION_DOT": 5.39e-06, "MEAN_MOTION_DDOT": 0}, "tle": {"line1": "1 31464U 99025BVC 25348.91787404  .00000539  00000+0  31259-3 0  9994", "line2": "2 31464  98.7947  35.6619 0043259 235.9629 301.8496 14.12478733947105"}}, "geometry": {"type": "Point", "coordinates": [19.46529163335436, 63.02037936970294]}}, {"type": "Feature", "properties": {"norad_id": 31466, "name": "FENGYUN 1C DEB", "group": "fengyun-1c-debris", "lat": 40.976503278414306, "lon": -87.48949931725173, "alt_km": 870.9999549862105, "timestamp": "2025-12-16T10:53:45.752496+00:00", "meta": {"OBJECT_NAME": "FENGYUN 1C DEB", "OBJECT_ID": "1999-025BVE", "EPOCH": "2025-12-15T12:41:44.393856", "MEAN_MOTION": 14.18524544, "ECCENTRICITY": 0.02991369, "INCLINATION": 99.0885, "RA_OF_ASC_NODE": 279.5534, "ARG_OF_PERICENTER": 300.888, "MEAN_ANOMALY": 56.3192, "EPHEMERIS_TYPE": 0, "CLASSIFICATION_TYPE": "U", "NORAD_CAT_ID": 31466, "ELEMENT_SET_NO": 999, "REV_AT_EPOCH": 96368, "BSTAR": 0.00022900413, "MEAN_MOTION_DOT": 6.8e-06, "MEAN_MOTION_DDOT": 0}, "tle": {"line1": "1 31466U 99025BVE 25349.52898604  .00000680  00000+0  22900-3 0  9999", "line2": "2 31466  99.0885 279.5534 0299136 300.8880  56.3192 14.18524544963689"}}, "geometry": {"type": "Point", "coordinates": [-87.48949931725173, 40.976503278414306]}}, {"type": "Feature", "properties": {"norad_id": 31468, "name": "FENGYUN 1C DEB", "group": "fengyun-1c-debris", "lat": 45.908378057727724, "lon": 174.9528116350766, "alt_km": 622.6460453861228, "timestamp": "2025-12-16T10:53:45.752508+00:00", "meta": {"OBJECT_NAME": "FENGYUN 1C DEB", "OBJECT_ID": "1999-025BVG", "EPOCH": "2025-12-15T17:40:52.277088", "MEAN_MOTION": 14.46598121, "ECCENTRICITY": 0.01665536, "INCLINATION": 98.1678, "RA_OF_ASC_NODE": 345.7354, "ARG_OF_PERICENTER": 157.6429, "MEAN_ANOMALY": 203.2135, "EPHEMERIS_TYPE": 0, "CLASSIFICATION_TYPE": "U", "NORAD_CAT_ID": 31468, "ELEMENT_SET_NO": 999, "REV_AT_EPOCH": 67415, "BSTAR": 0.00027310227, "MEAN_MOTION_DOT": 1.122e-05, "MEAN_MOTION_DDOT": 0}, "tle": {"line1": "1 31468U 99025BVG 25349.73671617  .00001122  00000+0  27310-3 0  9999", "line2": "2 31468  98.1678 345.7354 0166553 157.6429 203.2135 14.46598121674154"}}, "geometry": {"type": "Point", "coordinates": [174.9528116350766, 45.908378057727724]}}, {"type": "Feature", "properties": {"norad_id": 31473, "name": "FENGYUN 1C DEB", "group": "fengyun-1c-debris", "lat": 58.25791800885166, "lon": 9.379760752016688, "alt_km": 760.204550825023, "timestamp": "2025-12-16T10:53:45.752519+00:00", "meta": {"OBJECT_NAME": "FENGYUN 1C DEB", "OBJECT_ID": "1999-025BVM", "EPOCH": "2025-12-15T20:19:19.744320", "MEAN_MOTION": 14.29809594, "ECCENTRICITY": 0.00647277, "INCLINATION": 98.546, "RA_OF_ASC_NODE": 22.8515, "ARG_OF_PERICENTER": 5.6694, "MEAN_ANOMALY": 169.1905, "EPHEMERIS_TYPE": 0, "CLASSIFICATION_TYPE": "U", "NORAD_CAT_ID": 31473, "ELEMENT_SET_NO": 999, "REV_AT_EPOCH": 69565, "BSTAR": 0.00099912772, "MEAN_MOTION_DOT": 2.584e-05, "MEAN_MOTION_DDOT": 0}, "tle": {"line1": "1 31473U 99025BVM 25349.84675630  .00002584  00000+0  99913-3 0  9997", "line2": "2 31473  98.5460  22.8515 0064727   5.6694 169.1905 14.29809594695654"}}, "geometry": {"type": "Point", "coordinates": [9.379760752016688, 58.25791800885166]}}, {"type": "Feature", "properties": {"norad_id": 31474, "name": "FENGYUN 1C DEB", "group": "fengyun-1c-debris", "lat": 80.05291796651531, "lon": -30.330857674261736, "alt_km": 867.3170073801894, "timestamp": "2025-12-16T10:53:45.752529+00:00", "meta": {"OBJECT_NAME": "FENGYUN 1C DEB", "OBJECT_ID": "1999-025BVN", "EPOCH": "2025-12-15T20:51:57.564000", "MEAN_MOTION": 14.10608029, "ECCENTRICITY": 0.00720238, "INCLINATION": 99.145, "RA_OF_ASC_NODE": 35.782, "ARG_OF_PERICENTER": 197.6884, "MEAN_ANOMALY": 162.1777, "EPHEMERIS_TYPE": 0, "CLASSIFICATION_TYPE": "U", "NORAD_CAT_ID": 31474, "ELEMENT_SET_NO": 999, "REV_AT_EPOCH": 95014, "BSTAR": 0.0009926729, "MEAN_MOTION_DOT": 1.768e-05, "MEAN_MOTION_DDOT": 0}, "tle": {"line1": "1 31474U 99025BVN 25349.86941625  .00001768  00000+0  99267-3 0  9995", "line2": "2 31474  99.1450  35.7820 0072023 197.6884 162.1777 14.10608029950142"}}, "geometry": {"type": "Point", "coordinates": [-30.330857674261736, 80.05291796651531]}}, {"type": "Feature", "properties": {"norad_id": 31475, "name": "FENGYUN 1C DEB", "group": "fengyun-1c-debris", "lat": 48.05332285767485, "lon": -130.78491110434481, "alt_km": 655.7098176287236, "timestamp": "2025-12-16T10:53:45.752539+00:00", "meta": {"OBJECT_NAME": "FENGYUN 1C DEB", "OBJECT_ID": "1999-025BVP", "EPOCH": "2025-12-15T22:59:05.743104", "MEAN_MOTION": 14.38216368, "ECCENTRICITY": 0.02117578, "INCLINATION": 98.9394, "RA_OF_ASC_NODE": 238.7852, "ARG_OF_PERICENTER": 97.6529, "MEAN_ANOMALY": 264.8761, "EPHEMERIS_TYPE": 0, "CLASSIFICATION_TYPE": "U", "NORAD_CAT_ID": 31475, "ELEMENT_SET_NO": 999, "REV_AT_EPOCH": 96125, "BSTAR": 0.0004292044, "MEAN_MOTION_DOT": 1.638e-05, "MEAN_MOTION_DDOT": 0}, "tle": {"line1": "1 31475U 99025BVP 25349.95770536  .00001638  00000+0  42920-3 0  9997", "line2": "2 31475  98.9394 238.7852 0211757  97.6529 264.8761 14.38216368961259"}}, "geometry": {"type": "Point", "coordinates": [-130.78491110434481, 48.05332285767485]}}, {"type": "Feature", "properties": {"norad_id": 31476, "name": "FENGYUN 1C DEB", "group": "fengyun-1c-debris", "lat": -8.9538998713399, "lon": 65.39830558460338, "alt_km": 859.9341048845381, "timestamp": "2025-12-16T10:53:45.752550+00:00", "meta": {"OBJECT_NAME": "FENGYUN 1C DEB", "OBJECT_ID": "1999-025BVQ", "EPOCH": "2025-12-14T03:12:57.785760", "MEAN_MOTION": 14.22114532, "ECCENTRICITY": 0.00532615, "INCLINATION": 98.8966, "RA_OF_ASC_NODE": 61.6443, "ARG_OF_PERICENTER": 168.1157, "MEAN_ANOMALY": 192.129, "EPHEMERIS_TYPE": 0, "CLASSIFICATION_TYPE": "U", "NORAD_CAT_ID": 31476, "ELEMENT_SET_NO": 999, "REV_AT_EPOCH": 95719, "BSTAR": 0.0018761171, "MEAN_MOTION_DOT": 4.172e-05, "MEAN_MOTION_DDOT": 0}, "tle": {"line1": "1 31476U 99025BVQ 25348.13400215  .00004172  00000+0  18761-2 0  9992", "line2": "2 31476  98.8966  61.6443 0053261 168.1157 192.1290 14.22114532957199"}}, "geometry": {"type": "Point", "coordinates": [65.39830558460338, -8.9538998713399]}}]}